Business Name,Name,Link to search result,Telephone,Website Quailty ,WebsiteURL,Email,Linkedin,FacebookProfile,Address,City,State,ZIP,Country,Link to Entity,Entity Name,Registered Agent
Thrifty Heating & Cooling,,,(734) 973-9330,,,,,,,,,,US,https://cofs.lara.state.mi.us/CorpWeb/CorpSearch/CorpSummary.aspx?token=nBxILn58HwVtv4JMRDwTm1cWblopjmzIgq3FCQzRMH7Z0mRAdeXC1J+3Aoe7ir2NczO/oXVRwdDtEpGCjXx+XMGDc6if9ALVN2Y9Nt9oPZB5jM/nxXVid9BoB2J9DkJihry6ZsSosxlpaisK5Q7dNAqOAOnIaBWPawldQg51Nyp/zhz2lfAKRUlwmuaO1ARN0AbvXpr7aqbjJhbOgSP9t2/jZqnA4+vk/GuZCTHfCkD09H10PkWl5dPAgtD7ve2uZ+LWNxjFQ+hoEw1vBCZnP3pHwBWTmm59V89zGgnlOiyHT2HEvMBuQJv5hS3Dwe7kIFp1/lDJL5GCWHxFKgR3LuDH1Eajjn9S,THRIFTY HEATING & COOLING,Not Found
CRB Heating and Cooling,,,(734) 341-2841,,,,,,,,,,US,No link found,No entity found,Not Found
ACME,,,(313) 343-1545,,,,,,,,,,US,https://cofs.lara.state.mi.us/CorpWeb/CorpSearch/CorpSummary.aspx?token=nBxILn58HwVtv4JMRDwTm1cWblopjmzIgq3FCQzRMH7Z0mRAdeXC1G6s7l1PJJpWT2xF9SzuRSeH+aamFE5rWBrNcdWHuXsc3xMCKJRgchKfLFiQD+ktviYHoOwLsiz2u6H6S7XEz6MCaWIyIggbeEGdYRDX3cWic4hSZ08Kv08Z3Y7m+JSIy75Qn4ZwXimEQh83E+vLEsMIWw6y8KCG5fV2VCWjopPfZRD3NQ6Q7Ub80MINccNbYTf1A8hYrhpYsf+A09w41UmnuYeFkb4kr0X4yc3IFr4lGXlFBr/jMdkdTVpOGlE55iMsU6BfyoBCUSCq6+jVVULxJT5CxUjE6UcI5ssgKP74,ACME 17 MI,Not Found
Parker's Heating and Cooling,,,(313) 410-6189,,,,,,,,,,US,No link found,No entity found,Not Found
Rite-Temp Refrigeration,,,(734) 716-1810,,,,,,,,,,US,No link found,No entity found,Not Found
Dion Mechanical Solutions,,,(734) 205-7623,,,,,,,,,,US,https://cofs.lara.state.mi.us/CorpWeb/CorpSearch/CorpSummary.aspx?token=nBxILn58HwVtv4JMRDwTm1cWblopjmzIgq3FCQzRMH7Z0mRAdeXC1IVRaoIzvC75PQjA6EZNav0Q8Z2m61ldEZHblVt4UpmkUqWVdCdpDbUnxtOiepNPlR66wJlNvxaVS5RL0wmiyyslfDvLWr6MUVPHIBXjygKnz39wXBFeDt07vNwjx+Rb+SQ+MjIlXR942x2mctoRrgYeVB/zde/znA8wbRoTCVWH9AP493+1XpYWk0rY5ZG+wS3VNWXCoJANIcy1If3HCs7fmgi+70XdQRqrOw9wWp0+ClejKVbE7aF0ydZwy0l3E6VUUufAf0WIvJB0SorX7HMzVUUi1zvAVRa2Aye2JNU4,DION MECHANICAL SOLUTIONS INC.,Not Found
EZB Air,,,(248) 437-4844,,,,,,,,,,US,No link found,No entity found,Not Found
Novoa’s Services,,,(678) 887-4942,,,,,,,,,,US,https://cofs.lara.state.mi.us/CorpWeb/CorpSearch/CorpSummary.aspx?token=nBxILn58HwVtv4JMRDwTm1cWblopjmzIgq3FCQzRMH7Z0mRAdeXC1CKwPrfR2HwbI4gnOoEFY015yPBeI/PcbLwDWs9YBE/7jHxEU19XPIQdwLxMUqJwGzN8TzU1T19MnuTAAcc5SRNYEjtPZtnu96Fe5C7SwOMuDk/aXyRvIu3rKJDExxLa/omIB8auiIYuuGOsEvsRZkJV9H95yTNUQSQD4Tco3rOnJRDxRGv1Ytj61cEee5415SQ5sw4Q2slGk7Wf1ESBSwRrLUA3rhP9PJpre+so0CCrE5qV+vEgpiTp9V+ig6tGeyIbNNmDZrXaVWNSBRcmnAvC4qqXjXe8Uff5QmZDGlac,NOVOA'S SERVICES LLC,Not Found
Onnit Heating and Cooling,,,(734) 722-5761,,,,,,,,,,US,https://cofs.lara.state.mi.us/CorpWeb/CorpSearch/CorpSummary.aspx?token=nBxILn58HwVtv4JMRDwTm1cWblopjmzIgq3FCQzRMH7Z0mRAdeXC1HwYBiR//OM3S4k1Fl3tOkmLql4bxUNWwDmTT/+3IikRFhwpMx0KZ5tKaOwbCqLlejL60sDv6ZqLIQiqCAx4f4ydWLPGacXoX+p34TC0Mjg/ONOkXvZ4Oo1rxoMN/tLRqYNXmY9qxY3PF/X/DXa8wwhXcAoOSHMp1RvBXRc73pudT8hF6IKH0TI11aFN//IrVLg4qatNO7Zs5B62y7xtl107Inm/Pb0EqWEvaOjnFEJuMBS+3Y06BOHAlOZnhkw7SjW6acTWrSGT6yma087EaIbxdmVKrxijxZS54ZkTUlgk,ONNIT HEATING AND COOLING LLC,Not Found
Detroit Heating and Cooling Co,,,(248) 340-3609,,,,,,,,,,US,https://cofs.lara.state.mi.us/CorpWeb/CorpSearch/CorpSummary.aspx?token=nBxILn58HwVtv4JMRDwTm1cWblopjmzIgq3FCQzRMH7Z0mRAdeXC1Fk8Vfb9Dlo50OADSxlekgeje0gvF5RaawBwNhNkAtr5ILp9OrMNKTkOpFRlyEsR15cG7W4Mc8hEDirhVxy24Ay9WULfoIsJeq5oS1zKyLEy92Fz1yuL2WJ/FecP1iMonGXpYMhYA/zwN6LCynEqtdRdzQJIt6oON0rIH6VDKAnrPrC1P9aa5/NAna6cJoXzJASMZY+gUcl/bGn1njpyBENSi2sJwAEzR+oUEfWKU9v2j/jgC5Cpohlev9KVh6bYDrZQKggqOxLV5WHmLf+FTRT9Vp2IUSblHMTy7yKed3TW,DETROIT HEATING AND COOLING CO,Not Found
Advanced Home Services,,,(734) 604-3230,,,,,,,,,,US,https://cofs.lara.state.mi.us/CorpWeb/CorpSearch/CorpSummary.aspx?token=nBxILn58HwVtv4JMRDwTm1cWblopjmzIgq3FCQzRMH7Z0mRAdeXC1A5YAuNOLnzTGgvjQXgMuGSwfh5vw+b2LkEZL4Gek99YXkaqu7r8AB/6LKOG8qBUGLjCuSrzoVFEv2iRBR6PG3OwXO7Qs+J/+pIHJtBRgQZYT2UhLlisKXuhA11d7MYvwJCORpEOj76UDSEic41IHwMkK/eZhai16wNoYTIw2FuCfYkNaNcJf9z69rcsMJa1PS/EUVHwMzqZwcWId0wsRqfWVjsCVOyVB5V4Tcwd7QcsoNUuaIAtcUqwJLBbM7Lf3TfnzZcDhYwMwjFazTZRjjTxeNGbj/edsdOgzHilKn2w,ADVANCED HOME SERVICES,Not Found
SCW Services,,,(734) 693-4210,,,,,,,,,,US,https://cofs.lara.state.mi.us/CorpWeb/CorpSearch/CorpSummary.aspx?token=nBxILn58HwVtv4JMRDwTm1cWblopjmzIgq3FCQzRMH7Z0mRAdeXC1AACcFgh3Rnqg++hPB+iRADG0uHce1bbWScH3IwdKX0MOOy8+B1yV/HknaWk1p0AUTcGRgD5ShYy2F83qfy6kvIB1tS03pt1iCUzA2OHx9KJ3ff3rLjDqQ/Avf8ib0kR7X1cW5Qcwfla8IZbWKC5N0FSKdethcW+gfOzrqJ6ex81NgoMTQ3hZpnr0N7L5JkJhTkBOW57qi6/V01V8td0sIss2kzC66co7bM2bCe4nOmnvPapRZ3FD1IcIbzf0yxeg/3mR3I7bjiKX3i/8g83UsMl40Bq8LyL5sKOjv2llwC2,SCW SERVICES LLC,Not Found
Walker Family Heating & Cooling,,,(517) 888-3007,,,,,,,,,,US,https://cofs.lara.state.mi.us/CorpWeb/CorpSearch/CorpSummary.aspx?token=nBxILn58HwVtv4JMRDwTm1cWblopjmzIgq3FCQzRMH7Z0mRAdeXC1Bc/QbvEKg35eBxYzD0N5MgFhKCh3WkbcwqMyrwdPzetev4Fi//Ndd9nkfNOTMdTUTN7t0F9VngHpmeDTUQ1Q2Em0wvWApkWzT3C/Wb84uX4c2eJ7IzNYLAx6bQUq0pdi1bSOa5VKPiUYxEiA8sCG8FQuOm3/lzy2nEyyKNXFuay66hTjss8hg8lWOSfW1LoFITVLxdtKIFpSEi26ZDQtk7yb5uYic3RvcoYfFG0N2OkwdUhCBRT+N1QVXbA9cvEyXKenBD2hfKP25NC1/p8P9bAMoHbtv0p6S5gJst6vWrA,WALKER FAMILY HEATING AND COOLING LLC.,Not Found
Ches Services,,,(313) 683-4010,,,,,,,,,,US,No link found,No entity found,Not Found
Dion's Complete Plumbing Heating & Cooling,,,(734) 800-3820,,,,,,,,,,US,https://cofs.lara.state.mi.us/CorpWeb/CorpSearch/CorpSummary.aspx?token=nBxILn58HwVtv4JMRDwTm1cWblopjmzIgq3FCQzRMH7Z0mRAdeXC1M8eWnpzw7p580HKFBzKVSXfmJ2Yf4h7mPh7KtVuJoWXGY7glikcQwdOsP94YeeGu/wly3x5kb73FNbncl8cIQROWI6rZeJadfVro+uGnwz8ilIj724urQWjhrasEKallCaUZ8l3I5Qeh/8Ehqa/jUa8PjZyxiUqsKur3O70FUn/bjyzSIifZWRSquPhatZ9XnzG3+XFSb8k5RGRJ68PIbmY1wI2JLZ/QD6eXF21UG0usgV7p1nfex6EitJnbVsb6EKEVhL0qcx1LxyVzJJt2d/cFtiY/X+sN9IrH7Ko2ct6,"DION'S COMPLETE PLUMBING, HEATING, & COOLING LLC",Not Found
Ameripro Heating and Cooling,,,(734) 276-4067,,,,,,,,,,US,https://cofs.lara.state.mi.us/CorpWeb/CorpSearch/CorpSummary.aspx?token=nBxILn58HwVtv4JMRDwTm1cWblopjmzIgq3FCQzRMH7Z0mRAdeXC1B8JGGkdqhbxhijxhedmhMv+UwJUUtKOqIeHPxjk5U7u4k3JZVACKYQwBGI0CeAv9NhKSfQH8STYP1226ZzwpDikgF4iwzK7sZ0LDbM4WnVq+6C4p9IPtGI+x/du8DTBYvGv1kGdOwko5e/3ad4HPwyVqHmhERPox5EnsLdeXJrOsQlgK/5+XDeqcM3InHj4s258xKsrmUXwE/5OjeutbUJtX1gRTxwlzrZt0yWitFJupEOnKYW9vNARcxoBhgSJwEqOTC7nss1srT900hR2b0yXs6PwaAkqcjeIV48bHeGH,AMERIPRO HEATING AND COOLING LLC,Not Found
Motown Mechanical Heating and Cooling,,,(734) 833-8036,,,,,,,,,,US,https://cofs.lara.state.mi.us/CorpWeb/CorpSearch/CorpSummary.aspx?token=nBxILn58HwVtv4JMRDwTm1cWblopjmzIgq3FCQzRMH7Z0mRAdeXC1CQUgZLljPiscIyp1hy4v5QhcVCQjkdtOha6iPCyoKg8bQCYbjRDi8YtetDly/Ua9ZibCd0Yq27bLAIKNeUObY6uptynN46BKEtvORCRnytNRhDPu70RfB5Yba3nw3h1j++NPHu+GI43u/Z0nsr2StpA71SCWRLz/0mtZQ0glQXC6AzA2SWFfonLDdLZpH7EqT9aDgP0ve/BbdjWiSCGx1dxtc2ccXPZs/CrVUNGdtePDE71b4cwxeY17NlPeirVcjY8nPLGwuZf3jjDa7UdMVyafqX4HDxHnADpNfqLF4na,MOTOWN MECHANICAL HEATING AND COOLING LLC,Not Found
Mike O’s Handy Pros,,,(313) 465-4944,,,,,,,,,,US,https://cofs.lara.state.mi.us/CorpWeb/CorpSearch/CorpSummary.aspx?token=nBxILn58HwVtv4JMRDwTm1cWblopjmzIgq3FCQzRMH7Z0mRAdeXC1PKhRDUPWvf/XB5A5trvLR5kN1Am7X24d/PoYmuzDf0X3ree/QGJdbhvl9Un5kjMFPLGdUXPCyqDVaAfKSmHjvxbtpA1NFrtq72P8fR9NKELWnIxAtAOcPeI8pn2zduKLEUuaGdzMUtVKTaKbm7KAjK65q82Ph81TdMR79+U60zmMumRovmxhHoOc2gTafxrMP7WHUg5LH/LNNfi0f+iztegntimOJPdinShw6gqfmqgNKBS3T8PEK40sFNQLHcgnuWlbaq5LP8RSI5snHVKhKSPs5QBvSBviageUVqkzQQF,MIKE. O'S HANDY PROS LLC,Not Found
Blevins And Stamm Hvac,,,(586) 438-1739,,,,,,,,,,US,No link found,No entity found,Not Found
Home Service - HVAC,,,(800) 560-2713,,,,,,,,,,US,No link found,No entity found,Not Found
Fallert Heating & Cooling,,,(248) 437-9977,,,,,,,,,,US,https://cofs.lara.state.mi.us/CorpWeb/CorpSearch/CorpSummary.aspx?token=nBxILn58HwVtv4JMRDwTm1cWblopjmzIgq3FCQzRMH7Z0mRAdeXC1KeL1MgJWDfprtiyQAaxXZDUAGod6jXdPnY5rPP66l7VShaiXPp3g2OEwTmkYELyToyhhPAbgV1RYN+0NfNjWH3H4fu/BuXVaMGsOOgsmHWqYf9zyYkRgAtBFbzdVYA9zoTBqUxbvGagtDuQINjTGcqJSMkdM6sSVIXB0QRZ2dW/blet+pgn6K+n+KKJhr1s3TpYErBAKpZVZ9IlVOrqApp7kg1NFcbqxK+B9/BhEYI33dGkVaUwnQqUmVGBM8SbmL+wuIwD6mto17p6trVY16+LNvu01YJBqDV1hKsa1l5B,FALLERT HEATING AND COOLING INC.,Not Found
Jesus Duct Care & HVAC,,,(734) 530-3292,,,,,,,,,,US,No link found,No entity found,Not Found
Repair Lennox HVAC Systems,,,(734) 366-1933,,,,,,,,,,US,No link found,No entity found,Not Found
Flashing Heating & Cooling Repair,,,(734) 447-5214,,,,,,,,,,US,No link found,No entity found,Not Found
Flying Heating & Cooling Repair,,,(810) 206-2836,,,,,,,,,,US,No link found,No entity found,Not Found
Certa HVAC Repair Company,,,(517) 701-3282,,,,,,,,,,US,,,Not Found
Ann Arbor Heating & Cooling,,,(734) 929-0600,,,,,,,,,,US,,,Not Found
Advanced Attic Solutions Ann Arbor,,,(855) 217-0249,,,,,,,,,,US,,,Not Found
A1 Attic Insulation Company Ann Arbor,,,(855) 357-9434,,,,,,,,,,US,,,Not Found
SOS Attic Cleaners Ann Arbor,,,(877) 480-8176,,,,,,,,,,US,,,Not Found
SOS Attic Masters Ann Arbor,,,(877) 635-9154,,,,,,,,,,US,,,Not Found
Attic Control Ann Arbor,,,(855) 348-2267,,,,,,,,,,US,,,Not Found
Loyal Attic Insulation Ann Arbor,,,(855) 553-2797,,,,,,,,,,US,,,Not Found
SOS Attic Insulation Services Ann Arbor,,,(877) 472-9861,,,,,,,,,,US,,,Not Found
Elite Attic Services Ann Arbor,,,(855) 627-1492,,,,,,,,,,US,,,Not Found
Legacy Top Attic Services Ann Arbor,,,(855) 627-3031,,,,,,,,,,US,,,Not Found
I D C Heating & Cooling,,,(734) 668-4131,,,,,,,,,,US,,,Not Found
Repair Carrier HVAC Systems HVAC,,,(734) 316-8493,,,,,,,,,,US,,,Not Found
Free Estimates Cooling,,,(734) 205-9513,,,,,,,,,,US,,,Not Found
Lamkin Heating,,,(734) 484-3624,,,,,,,,,,US,,,Not Found
Paul Robrtson Heating Saline,,,(734) 429-7295,,,,,,,,,,US,,,Not Found
Jamnick Plumbing & Heating Inc,,,(734) 434-4023,,,,,,,,,,US,,,Not Found
Saline Plumbing And Heating,,,(734) 944-4700,,,,,,,,,,US,,,Not Found
Clear Advantage Mechanical,,,(616) 520-5884,,,,,,,,,,US,,,Not Found
Residence Inn by Marriott Grand Rapids Downtown,,,(616) 776-5905,,,,,,,,,,US,,,Not Found
Cook's Plumbing Heating & Cooling,,,(616) 589-4095,,,,,,,,,,US,,,Not Found
Innovative Comfort & Energy Solutions,,,(616) 291-0756,,,,,,,,,,US,,,Not Found
Brinker Mechanical Services,,,(616) 878-0229,,,,,,,,,,US,,,Not Found
Total Comfort Resource,,,(616) 406-3182,,,,,,,,,,US,,,Not Found
Evans Tempcon,,,(616) 361-2681,,,,,,,,,,US,,,Not Found
Ruiter Heating & Cooling,,,(231) 733-8449,,,,,,,,,,US,,,Not Found
Mac's Heating & Cooling,,,(616) 895-9090,,,,,,,,,,US,,,Not Found
"Merkle & Company, Inc (MW36)",,,(248) 766-2750,,,,,,,,,,US,,,Not Found
Accurate Heating & Cooling,,,(616) 885-4584,,,,,,,,,,US,,,Not Found
Star Furnace Repair,,,(616) 256-0590,,,,,,,,,,US,,,Not Found
Grand Rapids Air Conditioning Service & Repair,,,(616) 228-4216,,,,,,,,,,US,,,Not Found
GLCCB REYES Coca-Cola Bottling,,,(616) 458-4536,,,,,,,,,,US,,,Not Found
GRR PIPE,,,(616) 247-0307,,,,,,,,,,US,,,Not Found
Central States Property,,,(616) 456-8561,,,,,,,,,,US,,,Not Found
Premier Grand Rapids AC Repair & Cleaning Services,,,(616) 333-5703,,,,,,,,,,US,,,Not Found
Cuello Air Conditioning & Refrigeration Service & Repair,,,(621) 748-3710,,,,,,,,,,US,,,Not Found
AC Hotel by Marriott Grand Rapids Downtown,,,(616) 776-3200,,,,,,,,,,US,,,Not Found
Michigan Heating & Cooling,,,(616) 538-7260,,,,,,,,,,US,,,Not Found
Stienstra Heating & Cooling,,,(616) 258-2377,,,,,,,,,,US,,,Not Found
Jarosch Heating & Cooling,,,(616) 552-1885,,,,,,,,,,US,,,Not Found
Interstate Heating & Cooling,,,(616) 677-3500,,,,,,,,,,US,,,Not Found
HVAC Grand Rapids,,,(616) 777-5199,,,,,,,,,,US,,,Not Found
Thomas Heating and Cooling,,,(616) 988-2191,,,,,,,,,,US,,,Not Found
Elite Indoor Comfort,,,(616) 538-4818,,,,,,,,,,US,,,Not Found
Complete Air Services Heating & Cooling,,,(616) 878-1884,,,,,,,,,,US,,,Not Found
Kyle Fischer Appliance Tech & Handyman,,,(616) 886-8029,,,,,,,,,,US,,,Not Found
K & K Mechanical,,,(269) 447-7381,,,,,,,,,,US,,,Not Found
Lakeshore Plumbing & Heating,,,(231) 861-7333,,,,,,,,,,US,,,Not Found
Loc Heating & Cooling,,,(616) 583-0299,,,,,,,,,,US,,,Not Found
Ace Appliance,,,(616) 206-0639,,,,,,,,,,US,,,Not Found
Ramos Heating & Cooling,,,(616) 452-0020,,,,,,,,,,US,,,Not Found
Cnc Appliance Repair,,,(616) 389-0344,,,,,,,,,,US,,,Not Found
B Ph Mechanical Services,,,(616) 957-4470,,,,,,,,,,US,,,Not Found
Heating Contractor Grand Rapids,,,(866) 214-9326,,,,,,,,,,US,,,Not Found
Comfort Masters Heating & Air Conditioning,,,(616) 988-1560,,,,,,,,,,US,,,Not Found
Air Technology Heating and Cooling,,,(616) 238-5365,,,,,,,,,,US,,,Not Found
A1 Aafordable Air Conditioning & Heating,,,(616) 890-0319,,,,,,,,,,US,,,Not Found
Perfectly Square Construction,,,(616) 608-2752,,,,,,,,,,US,,,Not Found
Kris Kobylarz Heating and Cooling,,,(989) 334-5877,,,,,,,,,,US,,,Not Found
Jp Quality Services,,,(616) 888-5661,,,,,,,,,,US,,,Not Found
K&P Mechanical,,,(616) 325-4569,,,,,,,,,,US,,,Not Found
Servicefirst Hvac Parts,,,(616) 243-0570,,,,,,,,,,US,,,Not Found
The Building Performance Team,,,(616) 791-9180,,,,,,,,,,US,,,Not Found
Envi Energy Experts,,,(805) 765-2720,,,,,,,,,,US,,,Not Found
Diamond Heating & Cooling,,,(616) 459-3630,,,,,,,,,,US,,,Not Found
Consumers Heating Company,,,(616) 456-1157,,,,,,,,,,US,,,Not Found
Falicki Heating Co.,,,(616) 453-6174,,,,,,,,,,US,,,Not Found
Cammenga & Karsemeyer Heating,,,(616) 318-0193,,,,,,,,,,US,,,Not Found
Custom Climate Solutions Inc,,,(616) 301-9882,,,,,,,,,,US,,,Not Found
Van Engen Heating & Cooling Llc,,,(616) 698-0703,,,,,,,,,,US,,,Not Found
L. W. R. Heating & Cooling Inc.,,,(616) 784-4821,,,,,,,,,,US,,,Not Found
C & G Services,,,(616) 975-0140,,,,,,,,,,US,,,Not Found
Stearns Heating & Cooling LLC,,,(616) 550-5484,,,,,,,,,,US,,,Not Found
1st Class Heating Cooling Mech LLC,,,(616) 363-0938,,,,,,,,,,US,,,Not Found
Northview Mechanical & Building,,,(616) 361-1140,,,,,,,,,,US,,,Not Found
Rowells Heating AC & Service,,,(616) 530-9848,,,,,,,,,,US,,,Not Found
Refrigeration Engineering,,,(616) 735-2562,,,,,,,,,,US,,,Not Found
Taurus heating HVAC Services,,,(650) 360-2957,,,,,,,,,,US,,,Not Found
Acme Heating & Cooling,,,(616) 453-9492,,,,,,,,,,US,,,Not Found
DeGraff Heating & Cooling,,,(616) 451-0911,,,,,,,,,,US,,,Not Found
Air Comfort Heating & Cooling L.L.C.,,,(616) 235-7470,,,,,,,,,,US,,,Not Found
Trost Heating & Cooling Inc,,,(734) 522-6437,,,,,,,,,,US,,,Not Found
Wolverine Mechanical Services,,,(734) 425-5100,,,,,,,,,,US,,,Not Found
Furnace Guy Heating & Cooling,,,(734) 261-9190,,,,,,,,,,US,,,Not Found
Btu Heating & Cooling,,,(734) 462-2610,,,,,,,,,,US,,,Not Found
O Best Heating And Cooling,,,(313) 728-5336,,,,,,,,,,US,,,Not Found
Sheldo’s Heating And Cooling,,,(313) 263-7010,,,,,,,,,,US,,,Not Found
Acme Heating & Cooling Company,,,(734) 464-6100,,,,,,,,,,US,,,Not Found
Hobbs Mechanical Heating,,,(734) 427-8659,,,,,,,,,,US,,,Not Found
"SunnyWinters Heating & Cooling, Inc.",,,(248) 358-5900,,,,,,,,,,US,,,Not Found
Rna Heating & Cooling,,,(734) 459-1954,,,,,,,,,,US,,,Not Found
Advance Heating & Cooling,,,(734) 722-1302,,,,,,,,,,US,,,Not Found
Superior Heating & Cooling,,,(313) 724-1200,,,,,,,,,,US,,,Not Found
Public Heating Company,,,(248) 478-7410,,,,,,,,,,US,,,Not Found
Luter's Heating & Cooling,,,(313) 535-0386,,,,,,,,,,US,,,Not Found
Environmental Recovery Refrigeration,,,(248) 496-4545,,,,,,,,,,US,,,Not Found
Energy Savers Inc,,,(313) 255-0060,,,,,,,,,,US,,,Not Found
Mechanical air llc,,,(313) 538-2819,,,,,,,,,,US,,,Not Found
Morgan Mechanical,,,(313) 363-1194,,,,,,,,,,US,,,Not Found
Northern Comfort Heating & Cooling,,,(313) 608-0652,,,,,,,,,,US,,,Not Found
Shamrock Mechanical LLC,,,(734) 658-9672,,,,,,,,,,US,,,Not Found
Attar Enterprises Heating & Cooling,,,(734) 324-0054,,,,,,,,,,US,,,Not Found
K&H Heating and Cooling,,,(313) 445-9182,,,,,,,,,,US,,,Not Found
THE APPLIANCE GURUZ,,,(810) 336-3366,,,,,,,,,,US,,,Not Found
Gorilla Plumbing,,,(888) 731-8964,,,,,,,,,,US,,,Not Found
SOMS Indoor Air Quality,,,(248) 924-9710,,,,,,,,,,US,,,Not Found
South Lyon Heating & Cooling,,,(248) 437-1882,,,,,,,,,,US,,,Not Found
Hoover,,,(734) 259-2423,,,,,,,,,,US,,,Not Found
Robalee Mechanical,,,(419) 975-1926,,,,,,,,,,US,,,Not Found
Handy Dan Home Improvements,,,(313) 929-5551,,,,,,,,,,US,,,Not Found
Family Heating & Cooling,,,(248) 354-5001,,,,,,,,,,US,,,Not Found
Dunrite On Time,,,(517) 404-2995,,,,,,,,,,US,,,Not Found
Rjays Home Services,,,(313) 471-4732,,,,,,,,,,US,,,Not Found
EJJ Hvac Wholesale Supply,,,(313) 999-3734,,,,,,,,,,US,,,Not Found
Charter Air,,,(734) 578-9771,,,,,,,,,,US,,,Not Found
Kadiri Group,,,(313) 478-1724,,,,,,,,,,US,,,Not Found
Farmington Plumbing Heating and Cooling,,,(248) 957-0509,,,,,,,,,,US,,,Not Found
Jawani home services,,,(313) 491-9999,,,,,,,,,,US,,,Not Found
Gworks,,,(248) 499-3539,,,,,,,,,,US,,,Not Found
Dependable Heating Cooling,,,(313) 779-7881,,,,,,,,,,US,,,Not Found
Air Systems,,,(734) 453-6030,,,,,,,,,,US,,,Not Found
Alex Heating And Cooling,,,(248) 499-2792,,,,,,,,,,US,,,Not Found
West 11th Plumbing Heating and Cooling,,,(248) 957-0511,,,,,,,,,,US,,,Not Found
Fire & Ice Construction,,,(248) 306-9409,,,,,,,,,,US,,,Not Found
J Milburn Mechanical LLC,,,(313) 384-7460,,,,,,,,,,US,,,Not Found
"D & F Heating, Fireplace and Chimney",,,(313) 870-7255,,,,,,,,,,US,,,Not Found
Joiner Flooring Solutions,,,(313) 720-8373,,,,,,,,,,US,,,Not Found
Blessed Hands,,,(313) 778-3656,,,,,,,,,,US,,,Not Found
Doctor's Heating Cooling & Refrigeration,,,(313) 208-1567,,,,,,,,,,US,,,Not Found
Seal Mechanical,,,(248) 257-8161,,,,,,,,,,US,,,Not Found
R&A Mechanical Hvacr,,,(313) 461-6430,,,,,,,,,,US,,,Not Found
Deans Heating and Cooling,,,(734) 968-7652,,,,,,,,,,US,,,Not Found
Daniel's Heating & Cooling,,,(586) 772-0400,,,,,,,,,,US,,,Not Found
Duquet Arthur G Heating & Cooling,,,(248) 348-3770,,,,,,,,,,US,,,Not Found
Swac Wholesale Heating A-C LLC,,,(313) 534-2665,,,,,,,,,,US,,,Not Found
Farmington Hills Heating & Cooling Pros,,,(248) 579-4182,,,,,,,,,,US,,,Not Found
I D C Heating & Cooling,,,(313) 255-2808,,,,,,,,,,US,,,Not Found
Detroit Adequate Heating & Cooling Repair,,,(313) 403-2792,,,,,,,,,,US,,,Not Found
Lightninglike Lennox HVAC Systems,,,(248) 621-4278,,,,,,,,,,US,,,Not Found
Nrthlnd Heating & Air,,,(313) 533-1927,,,,,,,,,,US,,,Not Found
Tech IV Heating & Cooling,,,(734) 422-1285,,,,,,,,,,US,,,Not Found
Heating & Air Conditioning Company,,,(734) 456-9174,,,,,,,,,,US,,,Not Found
Grandell R A Heating Company Inc,,,(313) 534-2070,,,,,,,,,,US,,,Not Found
A Able Heating & Cooling,,,(313) 561-4850,,,,,,,,,,US,,,Not Found
Kevin S Heating Cooling,,,(313) 533-2080,,,,,,,,,,US,,,Not Found
Hotwired Electric Heating and Cooling,,,(734) 427-2197,,,,,,,,,,US,,,Not Found
Robindale Plumbing and Heating,,,(313) 952-9078,,,,,,,,,,US,,,Not Found
National Heating & Cooling,,,(734) 464-3888,,,,,,,,,,US,,,Not Found
Air Certified Heating Cooling & Airconditioning,,,(313) 533-2230,,,,,,,,,,US,,,Not Found
Heating & Air Conditioning Company,,,(248) 277-4796,,,,,,,,,,US,,,Not Found
Air Conditioning Specialties,,,(248) 939-8504,,,,,,,,,,US,,,Not Found
Heating & Cooling Contractors,,,(248) 939-8503,,,,,,,,,,US,,,Not Found
Cheap Heating & Air Conditioning,,,(313) 766-0107,,,,,,,,,,US,,,Not Found
Absolute Comfort Heating & Cooling,,,(734) 513-9467,,,,,,,,,,US,,,Not Found
Redford HVAC Pros,,,(313) 426-4621,,,,,,,,,,US,,,Not Found
A Aaco Heating & Cooling,,,(248) 655-0550,,,,,,,,,,US,,,Not Found
A Ross Heating & Cooling,,,(313) 274-6010,,,,,,,,,,US,,,Not Found
Absolute Heating Cooling and Plumbing,,,(313) 977-9616,,,,,,,,,,US,,,Not Found
Boiling Point Heating & Air Company,,,(248) 471-2677,,,,,,,,,,US,,,Not Found
Heating Contractors & Specialties,,,(248) 939-8507,,,,,,,,,,US,,,Not Found
Frederick Plumbing & Heating,,,(248) 358-3998,,,,,,,,,,US,,,Not Found
P & T Heating and Cooling,,,(313) 784-8465,,,,,,,,,,US,,,Not Found
Heating & Air Conditioning Company,,,(248) 957-0622,,,,,,,,,,US,,,Not Found
Justin Dryer Vent Professionals & HVAC,,,(734) 530-3275,,,,,,,,,,US,,,Not Found
Westland Plumbing Heating,,,(734) 456-5313,,,,,,,,,,US,,,Not Found
Plymouth Plumbing Heating and Cooling,,,(734) 456-5296,,,,,,,,,,US,,,Not Found
Gm Mechanical Heating COO,,,(313) 682-0905,,,,,,,,,,US,,,Not Found
Siglers Heating and Cooling,,,(313) 406-3824,,,,,,,,,,US,,,Not Found
Davis Heating & Cooling,,,(248) 967-1609,,,,,,,,,,US,,,Not Found
Hypersonic Ruud HVAC Systems,,,(248) 621-4282,,,,,,,,,,US,,,Not Found
Air Conditioning Service & Repair,,,(248) 939-8502,,,,,,,,,,US,,,Not Found
Air Conditioning by Malestic Heating & Cooling,,,(313) 835-1606,,,,,,,,,,US,,,Not Found
Kokke Heating & Cooling Inc,,,(248) 557-7730,,,,,,,,,,US,,,Not Found
Cheap Heating & Air Conditioning,,,(734) 452-2153,,,,,,,,,,US,,,Not Found
Ace Heating & Cooling,,,(734) 261-9058,,,,,,,,,,US,,,Not Found
Temperature Unlimited Inc,,,(734) 266-2500,,,,,,,,,,US,,,Not Found
Attic Insulation Expert Livonia,,,(877) 293-2310,,,,,,,,,,US,,,Not Found
911 Attic Insulation Livonia,,,(877) 271-9599,,,,,,,,,,US,,,Not Found
SOS Attic Insulation Services Livonia,,,(877) 472-9861,,,,,,,,,,US,,,Not Found
Legacy Top Attic Services Livonia,,,(855) 627-3031,,,,,,,,,,US,,,Not Found
AttiCare Cmpany Livonia,,,(855) 213-6316,,,,,,,,,,US,,,Not Found
TipTop Attic Insulation LLC Livonia,,,(855) 359-3282,,,,,,,,,,US,,,Not Found
Affordable Attic Insulation Livonia,,,(877) 257-1580,,,,,,,,,,US,,,Not Found
Attic Masters Insulation Services Livonia,,,(877) 253-9112,,,,,,,,,,US,,,Not Found
A1 Attic Insulation Company Livonia,,,(855) 357-9434,,,,,,,,,,US,,,Not Found
First Classic Heating & Cooling,,,(248) 477-9136,,,,,,,,,,US,,,Not Found
Loyal Attic Insulation Livonia,,,(855) 553-2797,,,,,,,,,,US,,,Not Found
Krutsch Services,,,(313) 535-8397,,,,,,,,,,US,,,Not Found
GMB Heating & Cooling,,,(734) 367-4246,,,,,,,,,,US,,,Not Found
Freeman Heating Air Conditioning Services,,,(248) 845-1424,,,,,,,,,,US,,,Not Found
Will Folsom heating and cooling,,,(248) 310-7768,,,,,,,,,,US,,,Not Found
"Restaurant Ventilation Specialists, Inc.",,,(248) 363-3044,,,,,,,,,,US,,,Not Found
Birmingham Heating & Air,,,(248) 752-1725,,,,,,,,,,US,,,Not Found
Heating & Air Conditioning Company,,,(734) 452-2152,,,,,,,,,,US,,,Not Found
Free Estimates Cooling,,,(248) 277-4803,,,,,,,,,,US,,,Not Found
Brisk Heating & Cooling Repair,,,(248) 221-1563,,,,,,,,,,US,,,Not Found
Lightninglike Heating & Cooling Repair,,,(248) 301-1437,,,,,,,,,,US,,,Not Found
Emergency Heating & Air Conditioning Company,,,(734) 452-1962,,,,,,,,,,US,,,Not Found
Productive Heating & Cooling Repair,,,(947) 221-0712,,,,,,,,,,US,,,Not Found
Apt Heating & Cooling Repair,,,(947) 252-2031,,,,,,,,,,US,,,Not Found
Skilled Heating & Cooling Repair,,,(248) 920-8926,,,,,,,,,,US,,,Not Found
Robin Aire Heating & Cooling,,,(248) 541-3300,,,,,,,,,,US,,,Not Found
Clear Advantage Mechanical,,,(616) 520-5884,,,,,,1620 Acacia Dr NW,Comstock Park,,49321.0,US,,,Not Found
Residence Inn by Marriott Grand Rapids Downtown,,,(616) 776-5905,,,,,,40 Louis St NW,Grand Rapids,,49503.0,US,,,Not Found
Cook's Plumbing Heating & Cooling,,,(616) 589-4095,,,,,,,Wyoming,,49509.0,US,,,Not Found
Innovative Comfort & Energy Solutions,,,(616) 291-0756,,,,,,1130 Fuller SE,Grand Rapids,,49506.0,US,,,Not Found
Brinker Mechanical Services,,,(616) 878-0229,,,,,,3143 Rush Creek Dr SW,Byron Center,,49315.0,US,,,Not Found
Total Comfort Resource,,,(616) 406-3182,,,,,,3584 Fairlanes Ave SW,Grandville,,49418.0,US,,,Not Found
Evans Tempcon,,,(616) 361-2681,,,,,,3260 Eagle Park Dr NE,Grand Rapids,,49525.0,US,,,Not Found
Ruiter Heating & Cooling,,,(231) 733-8449,,,,,,8429 13 Mile Rd NE,Rockford,,49341.0,US,,,Not Found
Mac's Heating & Cooling,,,(616) 895-9090,,,,,,10958 88th Ave,Allendale,,49401.0,US,,,Not Found
"Merkle & Company, Inc (MW36)",,,(248) 766-2750,,,,,,,Grand Rapids,,49548.0,US,,,Not Found
Accurate Heating & Cooling,,,(616) 885-4584,,,,,,1089 Leonard St NW,Grand Rapids,,49534.0,US,,,Not Found
Star Furnace Repair,,,(616) 256-0590,,,,,,536 Newberg Ave NW,Grand Rapids,,49504.0,US,,,Not Found
Grand Rapids Air Conditioning Service & Repair,,,(616) 228-4216,,,,,,1058 Scribner Ave NW,Grand Rapids,,49504.0,US,,,Not Found
GLCCB REYES Coca-Cola Bottling,,,(616) 458-4536,,,,,,333 Garfield Ave SW,Grand Rapids,,49504.0,US,,,Not Found
GRR PIPE,,,(616) 247-0307,,,,,,1649 Century Ave SW,Grand Rapids,,49503.0,US,,,Not Found
Central States Property,,,(616) 456-8561,,,,,,1359 Dewberry Pl NE,Grand Rapids,,49505.0,US,,,Not Found
Premier Grand Rapids AC Repair & Cleaning Services,,,(616) 333-5703,,,,,,89 Ionia Ave SW,Grand Rapids,,49503.0,US,,,Not Found
Cuello Air Conditioning & Refrigeration Service & Repair,,,(621) 748-3710,,,,,,705 Eastern Ave SE,Grand Rapids,,49503.0,US,,,Not Found
AC Hotel by Marriott Grand Rapids Downtown,,,(616) 776-3200,,,,,,50 Monroe Ave NW,Grand Rapids,,49503.0,US,,,Not Found
Michigan Heating & Cooling,,,(616) 538-7260,,,,,,2032 28th St SW,Wyoming,,49519.0,US,,,Not Found
Stienstra Heating & Cooling,,,(616) 258-2377,,,,,,250 Monroe NW,Grand Rapids Charter Township,,49503.0,US,,,Not Found
Jarosch Heating & Cooling,,,(616) 552-1885,,,,,,908 W River Center Dr NE,Comstock Park,,49321.0,US,,,Not Found
Interstate Heating & Cooling,,,(616) 677-3500,,,,,,O 3550 Lk Michign Dr,Marne,,49435.0,US,,,Not Found
HVAC Grand Rapids,,,(616) 777-5199,,,,,,6559 Rollingview Dr,Hudsonville,,49426.0,US,,,Not Found
Thomas Heating and Cooling,,,(616) 988-2191,,,,,,1625 Walker NW,Grand Rapids,,49504.0,US,,,Not Found
Elite Indoor Comfort,,,(616) 538-4818,,,,,,2971 N Horseshoe Dr SW,Wyoming,,49418.0,US,,,Not Found
Complete Air Services Heating & Cooling,,,(616) 878-1884,,,,,,7974 Clyde Park Ave SW,Byron Center,,49315.0,US,,,Not Found
Kyle Fischer Appliance Tech & Handyman,,,(616) 886-8029,,,,,,,West Olive,,49460.0,US,,,Not Found
K & K Mechanical,,,(269) 447-7381,,,,,,1020 5th St,Plainwell,,49080.0,US,,,Not Found
Lakeshore Plumbing & Heating,,,(231) 861-7333,,,,,,,Shelby,,49455.0,US,,,Not Found
Loc Heating & Cooling,,,(616) 583-0299,,,,,,2386 Byron Shores Dr SW,Byron Center,,49315.0,US,,,Not Found
Ace Appliance,,,(616) 206-0639,,,,,,,Wyoming,,49548.0,US,,,Not Found
Ramos Heating & Cooling,,,(616) 452-0020,,,,,,1045 Grandville Ave SW,Grand Rapids,,49503.0,US,,,Not Found
Cnc Appliance Repair,,,(616) 389-0344,,,,,,,Grand Rapids,,49508.0,US,,,Not Found
B Ph Mechanical Services,,,(616) 957-4470,,,,,,611528 SE,Grand Rapids,,49546.0,US,,,Not Found
Heating Contractor Grand Rapids,,,(866) 214-9326,,,,,,3196 Kraft Ave,Grand Rapids Charter Township,,49512.0,US,,,Not Found
Comfort Masters Heating & Air Conditioning,,,(616) 988-1560,,,,,,5724 Clay Ave SW,Grand Rapids,,49548.0,US,,,Not Found
Air Technology Heating and Cooling,,,(616) 238-5365,,,,,,,Jenison,,49428.0,US,,,Not Found
A1 Aafordable Air Conditioning & Heating,,,(616) 890-0319,,,,,,5001 Cedar Ridge St NE,Grand Rapids,,49525.0,US,,,Not Found
Perfectly Square Construction,,,(616) 608-2752,,,,,,924 Cresent St NE,Grand Rapids,,49503.0,US,,,Not Found
Kris Kobylarz Heating and Cooling,,,(989) 334-5877,,,,,,,Mount Pleasant,,48858.0,US,,,Not Found
Jp Quality Services,,,(616) 888-5661,,,,,,,Wyoming,,49509.0,US,,,Not Found
K&P Mechanical,,,(616) 325-4569,,,,,,,Grand Rapids,,49504.0,US,,,Not Found
Servicefirst Hvac Parts,,,(616) 243-0570,,,,,,3403 Lousma Dr SE,Grand Rapids,,49548.0,US,,,Not Found
The Building Performance Team,,,(616) 791-9180,,,,,,1631 Acacia Dr NW,Grand Rapids,,49504.0,US,,,Not Found
Envi Energy Experts,,,(805) 765-2720,,,,,,,Walker,,,US,,,Not Found
Diamond Heating & Cooling,,,(616) 459-3630,,,,,,619 Emperor St SW,Grand Rapids,,49504.0,US,,,Not Found
Consumers Heating Company,,,(616) 456-1157,,,,,,453 Carrier St NE,Grand Rapids,,49505.0,US,,,Not Found
Falicki Heating Co.,,,(616) 453-6174,,,,,,2231 Leonard St NW,Grand Rapids,,49504.0,US,,,Not Found
Cammenga & Karsemeyer Heating,,,(616) 318-0193,,,,,,4282 Central Pkwy,Hudsonville,,49426.0,US,,,Not Found
Custom Climate Solutions Inc,,,(616) 301-9882,,,,,,1867 Forest Lake Dr SE,Grand Rapids,,49546.0,US,,,Not Found
Van Engen Heating & Cooling Llc,,,(616) 698-0703,,,,,,1061 Swather St SE,Grand Rapids,,49508.0,US,,,Not Found
L. W. R. Heating & Cooling Inc.,,,(616) 784-4821,,,,,,3830 Mill Creek Dr NE,Comstock Park,,49321.0,US,,,Not Found
C & G Services,,,(616) 975-0140,,,,,,2525 E Paris Ave SE,Grand Rapids,,49546.0,US,,,Not Found
Stearns Heating & Cooling LLC,,,(616) 550-5484,,,,,,478 Eleanor St NE,Grand Rapids,,49505.0,US,,,Not Found
1st Class Heating Cooling Mech LLC,,,(616) 363-0938,,,,,,3060 Dorais Dr NE,Grand Rapids,,49525.0,US,,,Not Found
Northview Mechanical & Building,,,(616) 361-1140,,,,,,4486 Miramar Ave NE,Grand Rapids,,49525.0,US,,,Not Found
Rowells Heating AC & Service,,,(616) 530-9848,,,,,,4101 Colby Ave SW,Wyoming,,49509.0,US,,,Not Found
Refrigeration Engineering,,,(616) 735-2562,,,,,,3227 3 Mile Rd NW,Grand Rapids,,49534.0,US,,,Not Found
Taurus heating HVAC Services,,,(650) 360-2957,,,,,,550 Lafayette Ave SE,Grand Rapids,,49503.0,US,,,Not Found
Acme Heating & Cooling,,,(616) 453-9492,,,,,,1621 Richmond St NW,Grand Rapids,,49504.0,US,,,Not Found
DeGraff Heating & Cooling,,,(616) 451-0911,,,,,,1303 Plainfield Ave NE,Grand Rapids,,49505.0,US,,,Not Found
Air Comfort Heating & Cooling L.L.C.,,,(616) 235-7470,,,,,,1014 Malta St NE,Grand Rapids,,49503.0,US,,,Not Found
A Ross Heating & Cooling,,,(313) 274-6010,,,,,,,,,,,,,Not Found
Absolute Heating Cooling and Plumbing,,,(313) 977-9616,,,,,,,,,,,,,Not Found
Boiling Point Heating & Air Company,,,(248) 471-2677,,,,,,,,,,,,,Not Found
Heating Contractors & Specialties,,,(248) 939-8507,,,,,,,,,,,,,Not Found
Frederick Plumbing & Heating,,,(248) 358-3998,,,,,,,,,,,,,Not Found
P & T Heating and Cooling,,,(313) 784-8465,,,,,,,,,,,,,Not Found
Heating & Air Conditioning Company,,,(248) 957-0622,,,,,,,,,,,,,Not Found
Justin Dryer Vent Professionals & HVAC,,,(734) 530-3275,,,,,,,,,,,,,Not Found
Westland Plumbing Heating,,,(734) 456-5313,,,,,,,,,,,,,Not Found
Plymouth Plumbing Heating and Cooling,,,(734) 456-5296,,,,,,,,,,,,,Not Found
Gm Mechanical Heating COO,,,(313) 682-0905,,,,,,,,,,,,,Not Found
Siglers Heating and Cooling,,,(313) 406-3824,,,,,,,,,,,,,Not Found
Davis Heating & Cooling,,,(248) 967-1609,,,,,,,,,,,,,Not Found
Hypersonic Ruud HVAC Systems,,,(248) 621-4282,,,,,,,,,,,,,Not Found
Air Conditioning Service & Repair,,,(248) 939-8502,,,,,,,,,,,,,Not Found
Air Conditioning by Malestic Heating & Cooling,,,(313) 835-1606,,,,,,,,,,,,,Not Found
Kokke Heating & Cooling Inc,,,(248) 557-7730,,,,,,,,,,,,,Not Found
Cheap Heating & Air Conditioning,,,(734) 452-2153,,,,,,,,,,,,,Not Found
Ace Heating & Cooling,,,(734) 261-9058,,,,,,,,,,,,,Not Found
Temperature Unlimited Inc,,,(734) 266-2500,,,,,,,,,,,,,Not Found
Attic Insulation Expert Livonia,,,(877) 293-2310,,,,,,,,,,,,,Not Found
911 Attic Insulation Livonia,,,(877) 271-9599,,,,,,,,,,,,,Not Found
SOS Attic Insulation Services Livonia,,,(877) 472-9861,,,,,,,,,,,,,Not Found
Legacy Top Attic Services Livonia,,,(855) 627-3031,,,,,,,,,,,,,Not Found
AttiCare Cmpany Livonia,,,(855) 213-6316,,,,,,,,,,,,,Not Found
TipTop Attic Insulation LLC Livonia,,,(855) 359-3282,,,,,,,,,,,,,Not Found
Affordable Attic Insulation Livonia,,,(877) 257-1580,,,,,,,,,,,,,Not Found
Attic Masters Insulation Services Livonia,,,(877) 253-9112,,,,,,,,,,,,,Not Found
A1 Attic Insulation Company Livonia,,,(855) 357-9434,,,,,,,,,,,,,Not Found
First Classic Heating & Cooling,,,(248) 477-9136,,,,,,,,,,,,,Not Found
Loyal Attic Insulation Livonia,,,(855) 553-2797,,,,,,,,,,,,,Not Found
Krutsch Services,,,(313) 535-8397,,,,,,,,,,,,,Not Found
GMB Heating & Cooling,,,(734) 367-4246,,,,,,,,,,,,,Not Found
All Furnaces Repair Service,,,(586) 339-5941,,,,,,,,,,,,,Not Found
Parent Heating & Cooling,,,(248) 616-9980,,,,,,,,,,,,,Not Found
Cameron & King Pl-Ht-Air,,,(313) 862-7100,,,,,,,,,,,,,Not Found
Sheldo’s Heating And Cooling,,,(313) 263-7010,,,,,,,,,,,,,Not Found
R M C Service Co,,,(313) 342-0808,,,,,,,,,,,,,Not Found
Birmingham Heating & Air,,,(248) 752-1725,,,,,,,,,,,,,Not Found
Hobbs Mechanical Heating,,,(734) 427-8659,,,,,,,,,,,,,Not Found
A G Heating & Cooling Inc,,,(248) 204-9227,,,,,,,,,,,,,Not Found
Novoa’s Services,,,(678) 887-4942,,,,,,,,,,,,,Not Found
B&B Climate Control,,,(586) 222-1947,,,,,,,,,,,,,Not Found
Detroit Heating and Cooling Co,,,(248) 340-3609,,,,,,,,,,,,,Not Found
Seal Mechanical,,,(248) 257-8161,,,,,,,,,,,,,Not Found
Sensible Heating & Cooling,,,(517) 515-8046,,,,,,,,,,,,,Not Found
Dunrite On Time,,,(517) 404-2995,,,,,,,,,,,,,Not Found
"D & F Heating, Fireplace and Chimney",,,(313) 870-7255,,,,,,,,,,,,,Not Found
Fraser Heating and Cooling,,,(586) 405-8683,,,,,,,,,,,,,Not Found
Handy Dan Home Improvements,,,(313) 929-5551,,,,,,,,,,,,,Not Found
Blessed Hands,,,(313) 778-3656,,,,,,,,,,,,,Not Found
Jayâs Heat and Cooling,,,(586) 413-8028,,,,,,,,,,,,,Not Found
Bob Carpenter Heating Co,,,(248) 644-0123,,,,,,,,,,,,,Not Found
Jay Heating & Cooling,,,(313) 522-6054,,,,,,,,,,,,,Not Found
Shepherd Park Emergency Sewer and Drain,,,(248) 397-0330,,,,,,,,,,,,,Not Found
5Star Infinity Heating And Cooling,,,(313) 999-6229,,,,,,,,,,,,,Not Found
Parker's Heating and Cooling,,,(313) 410-6189,,,,,,,,,,,,,Not Found
McCullough Icy Hot Heating &Cooling,,,(313) 244-9052,,,,,,,,,,,,,Not Found
Cheap Heating & Air Conditioning,,,(248) 728-0048,,,,,,,,,,,,,Not Found
Davis Heating and Cooling,,,(248) 281-6963,,,,,,,,,,,,,Not Found
Air Certified Heating Cooling & Airconditioning,,,(313) 533-2230,,,,,,,,,,,,,Not Found
Clawson Heating Maintenance,,,(248) 237-4744,,,,,,,,,,,,,Not Found
Detroit Skilled Heating & Cooling Repair,,,(313) 261-7261,,,,,,,,,,,,,Not Found
Snowden Plumbing and Heating,,,(313) 915-9146,,,,,,,,,,,,,Not Found
Dashing Heating & Cooling Repair,,,(248) 509-0059,,,,,,,,,,,,,Not Found
Redford HVAC Pros,,,(313) 426-4621,,,,,,,,,,,,,Not Found
Matt's Heating and Cooling,,,(586) 822-3799,,,,,,,,,,,,,Not Found
Detroit Automatic Sprinkler Company,,,(586) 574-0100,,,,,,,,,,,,,Not Found
Aladdin Heating & Cooling,,,(586) 775-4646,,,,,,,,,,,,,Not Found
Superior Air Heating and Cooling,,,(586) 943-1093,,,,,,,,,,,,,Not Found
Reliable Energy Systems,,,(586) 772-5310,,,,,,,,,,,,,Not Found
Ron's Custom Heating & Cooling,,,(586) 263-1014,,,,,,,,,,,,,Not Found
Marek Mechanical LLC,,,(586) 758-0764,,,,,,,,,,,,,Not Found
North Star Refrigeration Heating & Cooling,,,(586) 939-0070,,,,,,,,,,,,,Not Found
J&J Heating and Air Conditioning,,,(586) 344-3793,,,,,,,,,,,,,Not Found
J & E Royalty Heating and Cooling,,,(248) 584-1060,,,,,,,,,,,,,Not Found
B & L Heating,,,(248) 288-3150,,,,,,,,,,,,,Not Found
Eastpointe Plumbing & Heating,,,(586) 776-1742,,,,,,,,,,,,,Not Found
Heatmasters Heating & Cooling,,,(586) 567-1976,,,,,,,,,,,,,Not Found
Heating Authority,,,(586) 268-1730,,,,,,,,,,,,,Not Found
Creative Heating And Cooling Inc.,,,(586) 943-1214,,,,,,,,,,,,,Not Found
Air Care HVAC,,,(248) 548-7776,,,,,,,,,,,,,Not Found
Ray's Refrigeration & Air Conditioning,,,(586) 755-1462,,,,,,,,,,,,,Not Found
Sise Heating & Air Conditioning,,,(586) 772-6810,,,,,,,,,,,,,Not Found
Roseville Heating & Cooling,,,(586) 294-7420,,,,,,,,,,,,,Not Found
City Express Mechanical Heating & Cooling,,,(586) 759-2050,,,,,,,,,,,,,Not Found
March Mechanical,,,(810) 560-0492,,,,,,,,,,,,,Not Found
Daniel's Heating Cooling Plumbing,,,(586) 772-0400,,,,,,,,,,,,,Not Found
HVAC Investments,,,(727) 228-9474,,,,,,,,,,,,,Not Found
Maven Heating Duct & Air Conditioning,,,(808) 946-4511,,,,,,,,,,,,,Not Found
Temp - 1 Heating & Cooling,,,(248) 686-4757,,,,,,,,,,,,,Not Found
Roman Empire Heating and Cooling,,,(586) 202-0672,,,,,,,,,,,,,Not Found
Morgan Mechanical,,,(313) 363-1194,,,,,,,,,,,,,Not Found
Ken's Refrigeration & Air Conditioning,,,(586) 519-0597,,,,,,,,,,,,,Not Found
Plt Heating & Cooling,,,(313) 423-0018,,,,,,,,,,,,,Not Found
Mobil Air,,,(248) 307-1938,,,,,,,,,,,,,Not Found
Kmetz Heating & Cooling,,,(586) 777-1929,,,,,,,,,,,,,Not Found
Abe's Sewer and Plumbing,,,(313) 283-7413,,,,,,,,,,,,,Not Found
Goodman Heating and Cooling,,,(313) 218-4343,,,,,,,,,,,,,Not Found
Aero Heating & Cooling,,,(586) 493-6000,,,,,,,,,,,,,Not Found
Always Pray Heating & Cooling,,,(248) 556-8661,,,,,,,,,,,,,Not Found
Quality Mechanical Systems,,,(313) 828-3933,,,,,,,,,,,,,Not Found
Williams Cooling & Heating Dvsn of Wllms Rfrgrtn &,,,(313) 372-5500,,,,,,,,,,,,,Not Found
P M Plumbing & Mechanical,,,(248) 392-6304,,,,,,,,,,,,,Not Found
National Induction Heating,,,(248) 547-5700,,,,,,,,,,,,,Not Found
RoboVent,,,(586) 204-6833,,,,,,,,,,,,,Not Found
Daniel's Heating & Air Conditioning,,,(313) 527-5935,,,,,,,,,,,,,Not Found
EB Services,,,(586) 751-7300,,,,,,,,,,,,,Not Found
Hovey HVAC,,,(586) 531-1250,,,,,,,,,,,,,Not Found
Vance Avenue Emergency Sewer and Drain,,,(248) 397-0319,,,,,,,,,,,,,Not Found
J Milburn Mechanical LLC,,,(313) 384-7460,,,,,,,,,,,,,Not Found
Heating Plus Cooling,,,(313) 893-3400,,,,,,,,,,,,,Not Found
R&A Mechanical Hvacr,,,(313) 461-6430,,,,,,,,,,,,,Not Found
C & C Heating and Air Conditioning,,,(586) 371-2020,,,,,,,,,,,,,Not Found
Warren Hvac Service,,,(586) 244-7066,,,,,,,,,,,,,Not Found
American pride heating and cooling,,,(248) 561-3898,,,,,,,,,,,,,Not Found
C & C Heating and Air Conditioning,,,(586) 218-3918,,,,,,,,,,,,,Not Found
Dion's Complete Plumbing Heating & Cooling,,,(734) 800-3820,,,,,,,,,,,,,Not Found
Quality Comfort Heating and Cooling,,,(586) 222-7001,,,,,,,,,,,,,Not Found
Silver Shepherd Home Services,,,(586) 360-8564,,,,,,,,,,,,,Not Found
Teds Plumbing Heating,,,(313) 670-5930,,,,,,,,,,,,,Not Found
Mike O’s Handy Pros,,,(313) 465-4944,,,,,,,,,,,,,Not Found
Titan Heating and Cooling,,,(734) 239-3820,,,,,,,,,,,,,Not Found
Williams Heat and Cool,,,(313) 402-6542,,,,,,,,,,,,,Not Found
E&T HVAC,,,(989) 614-2377,,,,,,,,,,,,,Not Found
Jam's Maintenance,,,(586) 459-8433,,,,,,,,,,,,,Not Found
Hazel Park Plumbing and Heating,,,(248) 397-0269,,,,,,,,,,,,,Not Found
Detroit Ductless Air Conditioning & Heat Pumps,,,(313) 771-8807,,,,,,,,,,,,,Not Found
Hamtramck Heating & Cooling Emergency Response,,,(313) 356-5766,,,,,,,,,,,,,Not Found
Madison Heights We Service Heating & Cooling Makes & Models,,,(248) 301-2591,,,,,,,,,,,,,Not Found
Heating & Air Conditioning Company,,,(586) 298-3738,,,,,,,,,,,,,Not Found
Detroit Able Heating & Cooling Repair,,,(313) 466-7157,,,,,,,,,,,,,Not Found
Holiday Heating,,,(313) 647-4468,,,,,,,,,,,,,Not Found
Vision Air Heating and Cooling,,,(586) 343-8118,,,,,,,,,,,,,Not Found
Clinton Township Heating & Cooling,,,(586) 649-3170,,,,,,,,,,,,,Not Found
Jet's Plumbing Heating & Cooling,,,(313) 769-4176,,,,,,,,,,,,,Not Found
Detroit Casement Air Conditioning Repair,,,(313) 497-4411,,,,,,,,,,,,,Not Found
Exclusive Heating,,,(313) 397-2811,,,,,,,,,,,,,Not Found
Tech IV Heating & Cooling,,,(586) 466-4000,,,,,,,,,,,,,Not Found
Max Dryer Vent Solutions & HVAC,,,(313) 327-3489,,,,,,,,,,,,,Not Found
Quick Heating & Cooling Repair,,,(586) 265-5687,,,,,,,,,,,,,Not Found
Nimble Heating & Cooling Repair,,,(586) 666-4784,,,,,,,,,,,,,Not Found
Lakeview Heating Cooling Plumbing & Electrical,,,(586) 436-3438,,,,,,,,,,,,,Not Found
Camelot Heating & Air Conditioning Heating & Air Conditioning/HVAC,,,(877) 361-3008,,,,,,,,,,,,,Not Found
Fleet Carrier HVAC Systems,,,(248) 509-0544,,,,,,,,,,,,,Not Found
Acme Air Conditioning & Heating,,,(726) 200-1700,,,,,,,,,,,,,Not Found
Winged Heating & Cooling Repair,,,(586) 666-4949,,,,,,,,,,,,,Not Found
Air Flow Heating Supply,,,(586) 755-1996,,,,,,,,,,,,,Not Found
Triple A Heating Company,,,(586) 755-1920,,,,,,,,,,,,,Not Found
Advanced Attic Solutions Warren,,,(855) 217-0249,,,,,,,,,,,,,Not Found
A1 Attic Insulation Company Warren,,,(855) 357-9434,,,,,,,,,,,,,Not Found
Repair Trane HVAC Systems,,,(586) 204-8894,,,,,,,,,,,,,Not Found
"City Express Heating & Cooling, Inc.",,,(248) 547-0200,,,,,,,,,,,,,Not Found
Arctic Flame Heating & Cooling,,,(586) 932-3374,,,,,,,,,,,,,Not Found
Roseville Plumbing Heating and Cooling,,,(586) 298-3204,,,,,,,,,,,,,Not Found
Polar Heating & Cooling,,,(586) 778-5430,,,,,,,,,,,,,Not Found
Hvac Preferred Engineer System,,,(248) 541-3521,,,,,,,,,,,,,Not Found
Rapid Service Refrigeration,,,(586) 294-5959,,,,,,,,,,,,,Not Found
Michael Norton Heating,,,(248) 445-8674,,,,,,,,,,,,,Not Found
Trane HVAC Systems Repair,,,(586) 217-2572,,,,,,,,,,,,,Not Found
Top Team Attic Insulation Warren,,,(855) 622-7361,,,,,,,,,,,,,Not Found
Marciniak Heating & Cooling,,,(586) 779-8593,,,,,,,,,,,,,Not Found
Detroit Heating & Air Conditioning Company,,,(248) 729-0497,,,,,,,,,,,,,Not Found
Sj Heating Cooling,,,(313) 527-5909,,,,,,,,,,,,,Not Found
Decker Boiler Company,,,(586) 773-2402,,,,,,,,,,,,,Not Found
Detroit Heating & Air Conditioning Company,,,(586) 467-0435,,,,,,,,,,,,,Not Found
Heating & Air Conditioning Company,,,(248) 397-0289,,,,,,,,,,,,,Not Found
Warren Plumbing and Heating,,,(586) 467-0475,,,,,,,,,,,,,Not Found
Detroit Heating & Air Conditioning Company,,,(248) 397-0860,,,,,,,,,,,,,Not Found
Ambient Temp Heating and Cooling,,,(586) 434-5075,,,,,,,,,,,,,Not Found
Maurice Heating and Cooling,,,(586) 920-2863,,,,,,,,,,,,,Not Found
Fast Heating and Air Conditioning,,,(248) 546-0101,,,,,,,,,,,,,Not Found
Refrigeration R W,,,(586) 619-7180,,,,,,,,,,,,,Not Found
Arctic Flame Heating & Cooling,,,(248) 996-0075,,,,,,,,,,,,,Not Found
Mound Road Plumbing and Heating,,,(313) 731-9132,,,,,,,,,,,,,Not Found
